KUIPER-00035            
1 63748U 25088AA  25253.13249359  .00003200  00000+0  44803-3 0  9990
2 63748  51.9011 192.5205 0004995 194.5102 165.5718 14.79985782 20779
KUIPER-00037            
1 63749U 25088AB  25253.20170303  .00001179  00000+0  18368-3 0  9991
2 63749  51.8992 191.1794 0006914 133.6181 226.5356 14.79945192 21586
KUIPER-00038            
1 63750U 25088AC  25253.25003472  .00048014  00000+0  46783-2 0  9990
2 63750  51.8941 175.8556 0005985 190.8620  49.3740 14.92001379  5908
KUIPER-00039            
1 64500U 25134A   25253.20194408 -.00029871  00000+0 -15697-2 0  9993
2 64500  51.8841 313.4194 0010664  49.6529 310.5378 15.14950711 13310
KUIPER-00040            
1 64501U 25134B   25253.25003472 -.00146950  00000+0 -19618-1 0  9993
2 64501  51.9299 322.1392 0018051  39.1775 349.7872 14.79907412  5551
KUIPER-00041            
1 64502U 25134C   25253.17663940  .00003229  00000+0  45245-3 0  9993
2 64502  51.8998 323.8308 0014504  33.0278 327.1587 14.79893812 13169
KUIPER-00042            
1 64503U 25134D   25253.25003472 -.00071161  00000+0 -81831-2 0  9993
2 64503  51.8963 319.5320 0015135  44.4909 309.3697 14.85595490  4326
KUIPER-00043            
1 64504U 25134E   25252.91668981 -.00951281  00000+0 -57822-1 0  9990
2 64504  51.8922 315.6686 0006970  37.8688 162.7023 15.12859742  5454
